CTC1_L_00211001-01
1 63754U 25567PI  26037.47803241  .00000000  00000+0  00000-0 0  9996
2 63754  70.0000   0.0000 0000000   0.0000   0.0000 13.42494869    15
CTC1_L_00211001-02
1 63755U 24463LT  26037.47803241  .00000000  00000+0  00000-0 0  9991
2 63755  70.0000   0.0000 0000000   0.0000  90.0000 13.42494869    15
CTC1_L_00211001-03
1 63756U 22237VL  26037.47803241  .00000000  00000+0  00000-0 0  9999
2 63756  70.0000   0.0000 0000000   0.0000 180.0000 13.42494869    16
CTC1_L_00211001-04
1 63757U 25458QP  26037.47803241  .00000000  00000+0  00000-0 0  9998
2 63757  70.0000   0.0000 0000000   0.0000 270.0000 13.42494869    17
CTC1_L_00211002-01
1 63758U 24530TC  26037.47803241  .00000000  00000+0  00000-0 0  9999
2 63758  70.0000  12.0000 0000000   0.0000  12.0000 13.42494869    15
CTC1_L_00211002-02
1 63759U 24505HT  26037.47803241  .00000000  00000+0  00000-0 0  9992
2 63759  70.0000  12.0000 0000000   0.0000 102.0000 13.42494869    16
CTC1_L_00211002-03
1 63760U 25425CF  26037.47803241  .00000000  00000+0  00000-0 0  9996
2 63760  70.0000  12.0000 0000000   0.0000 192.0000 13.42494869    17
CTC1_L_00211002-04
1 63761U 26896E   26037.47803241  .00000000  00000+0  00000-0 0  9990
2 63761  70.0000  12.0000 0000000   0.0000 282.0000 13.42494869    18
CTC1_L_00211003-01
1 63762U 26473PE  26037.47803241  .00000000  00000+0  00000-0 0  9992
2 63762  70.0000  24.0000 0000000   0.0000  24.0000 13.42494869    16
CTC1_L_00211003-02
1 63763U 26116VE  26037.47803241  .00000000  00000+0  00000-0 0  9997
2 63763  70.0000  24.0000 0000000   0.0000 114.0000 13.42494869    17
CTC1_L_00211003-03
1 63764U 23303DS  26037.47803241  .00000000  00000+0  00000-0 0  9993
2 63764  70.0000  24.0000 0000000   0.0000 204.0000 13.42494869    18
CTC1_L_00211003-04
1 63765U 22018JL  26037.47803241  .00000000  00000+0  00000-0 0  9996
2 63765  70.0000  24.0000 0000000   0.0000 294.0000 13.42494869    18
CTC1_L_00211004-01
1 63766U 22446RT  26037.47803241  .00000000  00000+0  00000-0 0  9992
2 63766  70.0000  36.0000 0000000   0.0000  36.0000 13.42494869    16
CTC1_L_00211004-02
1 63767U 24970WG  26037.47803241  .00000000  00000+0  00000-0 0  9997
2 63767  70.0000  36.0000 0000000   0.0000 126.0000 13.42494869    17
CTC1_L_00211004-03
1 63768U 26598IA  26037.47803241  .00000000  00000+0  00000-0 0  9996
2 63768  70.0000  36.0000 0000000   0.0000 216.0000 13.42494869    18
CTC1_L_00211004-04
1 63769U 23389UU  26037.47803241  .00000000  00000+0  00000-0 0  9992
2 63769  70.0000  36.0000 0000000   0.0000 306.0000 13.42494869    19
CTC1_L_00211005-01
1 63770U 26249QK  26037.47803241  .00000000  00000+0  00000-0 0  9992
2 63770  70.0000  48.0000 0000000   0.0000  48.0000 13.42494869    17
CTC1_L_00211005-02
1 63771U 24548IT  26037.47803241  .00000000  00000+0  00000-0 0  9993
2 63771  70.0000  48.0000 0000000   0.0000 138.0000 13.42494869    18
CTC1_L_00211005-03
1 63772U 23062TD  26037.47803241  .00000000  00000+0  00000-0 0  9994
2 63772  70.0000  48.0000 0000000   0.0000 228.0000 13.42494869    19
CTC1_L_00211005-04
1 63773U 23451XV  26037.47803241  .00000000  00000+0  00000-0 0  9997
2 63773  70.0000  48.0000 0000000   0.0000 318.0000 13.42494869    10
CTC1_L_00211006-01
1 63774U 24759TH  26037.47803241  .00000000  00000+0  00000-0 0  9990
2 63774  70.0000  60.0000 0000000   0.0000  60.0000 13.42494869    19
CTC1_L_00211006-02
1 63775U 24995FQ  26037.47803241  .00000000  00000+0  00000-0 0  9993
2 63775  70.0000  60.0000 0000000   0.0000 150.0000 13.42494869    10
CTC1_L_00211006-03
1 63776U 22230JY  26037.47803241  .00000000  00000+0  00000-0 0  9994
2 63776  70.0000  60.0000 0000000   0.0000 240.0000 13.42494869    11
CTC1_L_00211006-04
1 63777U 25130XY  26037.47803241  .00000000  00000+0  00000-0 0  9997
2 63777  70.0000  60.0000 0000000   0.0000 330.0000 13.42494869    12
CTC1_L_00211007-01
1 63778U 24844ZH  26037.47803241  .00000000  00000+0  00000-0 0  9999
2 63778  70.0000  72.0000 0000000   0.0000  72.0000 13.42494869    19
CTC1_L_00211007-02
1 63779U 23882FJ  26037.47803241  .00000000  00000+0  00000-0 0  9991
2 63779  70.0000  72.0000 0000000   0.0000 162.0000 13.42494869    10
CTC1_L_00211007-03
1 63780U 24747QX  26037.47803241  .00000000  00000+0  00000-0 0  9994
2 63780  70.0000  72.0000 0000000   0.0000 252.0000 13.42494869    12
CTC1_L_00211007-04
1 63781U 26392MV  26037.47803241  .00000000  00000+0  00000-0 0  9993
2 63781  70.0000  72.0000 0000000   0.0000 342.0000 13.42494869    13
CTC1_L_00211008-01
1 63782U 24153VP  26037.47803241  .00000000  00000+0  00000-0 0  9997
2 63782  70.0000  84.0000 0000000   0.0000  84.0000 13.42494869    10
CTC1_L_00211008-02
1 63783U 25062PT  26037.47803241  .00000000  00000+0  00000-0 0  9998
2 63783  70.0000  84.0000 0000000   0.0000 174.0000 13.42494869    11
CTC1_L_00211008-03
1 63784U 26267PU  26037.47803241  .00000000  00000+0  00000-0 0  9997
2 63784  70.0000  84.0000 0000000   0.0000 264.0000 13.42494869    12
CTC1_L_00211008-04
1 63785U 26475NP  26037.47803241  .00000000  00000+0  00000-0 0  9999
2 63785  70.0000  84.0000 0000000   0.0000 354.0000 13.42494869    13
CTC1_L_00211009-01
1 63786U 25237CT  26037.47803241  .00000000  00000+0  00000-0 0  9995
2 63786  70.0000  96.0000 0000000   0.0000  96.0000 13.42494869    10
CTC1_L_00211009-02
1 63787U 25363HA  26037.47803241  .00000000  00000+0  00000-0 0  9996
2 63787  70.0000  96.0000 0000000   0.0000 186.0000 13.42494869    11
CTC1_L_00211009-03
1 63788U 23418RQ  26037.47803241  .00000000  00000+0  00000-0 0  9996
2 63788  70.0000  96.0000 0000000   0.0000 276.0000 13.42494869    12
CTC1_L_00211009-04
1 63789U 23098C   26037.47803241  .00000000  00000+0  00000-0 0  9991
2 63789  70.0000  96.0000 0000000   0.0000   6.0000 13.42494869    14
CTC1_L_00211010-01
1 63790U 25971VF  26037.47803241  .00000000  00000+0  00000-0 0  9995
2 63790  70.0000 108.0000 0000000   0.0000 108.0000 13.42494869    13
CTC1_L_00211010-02
1 63791U 22978SR  26037.47803241  .00000000  00000+0  00000-0 0  9990
2 63791  70.0000 108.0000 0000000   0.0000 198.0000 13.42494869    13
CTC1_L_00211010-03
1 63792U 23196UV  26037.47803241  .00000000  00000+0  00000-0 0  9994
2 63792  70.0000 108.0000 0000000   0.0000 288.0000 13.42494869    14
CTC1_L_00211010-04
1 63793U 23767WB  26037.47803241  .00000000  00000+0  00000-0 0  9999
2 63793  70.0000 108.0000 0000000   0.0000  18.0000 13.42494869    16
CTC1_L_00211011-01
1 63794U 25901LM  26037.47803241  .00000000  00000+0  00000-0 0  9992
2 63794  70.0000 120.0000 0000000   0.0000 120.0000 13.42494869    15
CTC1_L_00211011-02
1 63795U 22534AU  26037.47803241  .00000000  00000+0  00000-0 0  9992
2 63795  70.0000 120.0000 0000000   0.0000 210.0000 13.42494869    16
CTC1_L_00211011-03
1 63796U 24041Y   26037.47803241  .00000000  00000+0  00000-0 0  9998
2 63796  70.0000 120.0000 0000000   0.0000 300.0000 13.42494869    17
CTC1_L_00211011-04
1 63797U 25664GH  26037.47803241  .00000000  00000+0  00000-0 0  9991
2 63797  70.0000 120.0000 0000000   0.0000  30.0000 13.42494869    18
CTC1_L_00211012-01
1 63798U 22200OR  26037.47803241  .00000000  00000+0  00000-0 0  9995
2 63798  70.0000 132.0000 0000000   0.0000 132.0000 13.42494869    15
CTC1_L_00211012-02
1 63799U 24980RL  26037.47803241  .00000000  00000+0  00000-0 0  9993
2 63799  70.0000 132.0000 0000000   0.0000 222.0000 13.42494869    16
CTC1_L_00211012-03
1 63800U 23538NK  26037.47803241  .00000000  00000+0  00000-0 0  9994
2 63800  70.0000 132.0000 0000000   0.0000 312.0000 13.42494869    19
CTC1_L_00211012-04
1 63801U 26418RF  26037.47803241  .00000000  00000+0  00000-0 0  9995
2 63801  70.0000 132.0000 0000000   0.0000  42.0000 13.42494869    10
CTC1_L_00211013-01
1 63802U 23257BI  26037.47803241  .00000000  00000+0  00000-0 0  9994
2 63802  70.0000 144.0000 0000000   0.0000 144.0000 13.42494869    17
CTC1_L_00211013-02
1 63803U 23060AZ  26037.47803241  .00000000  00000+0  00000-0 0  9997
2 63803  70.0000 144.0000 0000000   0.0000 234.0000 13.42494869    18
CTC1_L_00211013-03
1 63804U 24783FR  26037.47803241  .00000000  00000+0  00000-0 0  9991
2 63804  70.0000 144.0000 0000000   0.0000 324.0000 13.42494869    19
CTC1_L_00211013-04
1 63805U 26782UZ  26037.47803241  .00000000  00000+0  00000-0 0  9993
2 63805  70.0000 144.0000 0000000   0.0000  54.0000 13.42494869    10
CTC1_L_00211014-01
1 63806U 24208AB  26037.47803241  .00000000  00000+0  00000-0 0  9995
2 63806  70.0000 156.0000 0000000   0.0000 156.0000 13.42494869    17
CTC1_L_00211014-02
1 63807U 23404RE  26037.47803241  .00000000  00000+0  00000-0 0  9993
2 63807  70.0000 156.0000 0000000   0.0000 246.0000 13.42494869    18
CTC1_L_00211014-03
1 63808U 24680KZ  26037.47803241  .00000000  00000+0  00000-0 0  9991
2 63808  70.0000 156.0000 0000000   0.0000 336.0000 13.42494869    19
CTC1_L_00211014-04
1 63809U 23549MF  26037.47803241  .00000000  00000+0  00000-0 0  9995
2 63809  70.0000 156.0000 0000000   0.0000  66.0000 13.42494869    10
CTC1_L_00211015-01
1 63810U 23363OA  26037.47803241  .00000000  00000+0  00000-0 0  9991
2 63810  70.0000 168.0000 0000000   0.0000 168.0000 13.42494869    18
CTC1_L_00211015-02
1 63811U 22306SS  26037.47803241  .00000000  00000+0  00000-0 0  9998
2 63811  70.0000 168.0000 0000000   0.0000 258.0000 13.42494869    19
CTC1_L_00211015-03
1 63812U 22165FS  26037.47803241  .00000000  00000+0  00000-0 0  9992
2 63812  70.0000 168.0000 0000000   0.0000 348.0000 13.42494869    10
CTC1_L_00211015-04
1 63813U 25437PQ  26037.47803241  .00000000  00000+0  00000-0 0  9998
2 63813  70.0000 168.0000 0000000   0.0000  78.0000 13.42494869    11
CTC1_L_00211016-01
1 63814U 22101US  26037.47803241  .00000000  00000+0  00000-0 0  9994
2 63814  70.0000 180.0000 0000000   0.0000 180.0000 13.42494869    10
CTC1_L_00211016-02
1 63815U 25886MX  26037.47803241  .00000000  00000+0  00000-0 0  9998
2 63815  70.0000 180.0000 0000000   0.0000 270.0000 13.42494869    11
